{
  "norad_id": 64691,
  "name": "LYRA-4",
  "history": [
    {
      "epoch": "2026-03-28T21:20:41.801280Z",
      "apogee_km": 663.8645350120732,
      "perigee_km": 643.6520551758549,
      "latitude_deg": -2.9403665473559582e-05,
      "longitude_deg": 82.76858941406974,
      "height_km": 660.6617117423131,
      "semi_major_axis_km": 7031.895295093964,
      "eccentricity": 0.0014372,
      "inclination_deg": 95.9932,
      "raan_deg": 229.2461,
      "arg_perigee_deg": 112.5375,
      "mean_anomaly_deg": 247.736,
      "mean_motion_rev_day": 14.72292734
    }
  ]
}